*******************************************************************************
 Revised: Dec 14, 2021            STEREO-A Spacecraft                      -234
                              http://stereo.gsfc.nasa.gov/

 BACKGROUND:
  STEREO (Solar TErrestrial RElations Observatory) is the third mission in 
  NASA's Solar Terrestrial Probes program (STP). This two-year mission will use
  two nearly identical space-based observatories - one ahead of Earth in its 
  orbit, the other trailing behind - to provide stereoscopic measurements to 
  study the Sun and the nature of coronal mass ejections (CMEs).

 OBJECTIVES:
  * Understand the causes and mechanisms of coronal mass ejection (CME) 
     initiation.
  * Characterize the propagation of CMEs through the heliosphere.
  * Discover the mechanisms and sites of energetic particle acceleration in 
     the low corona and the interplanetary medium.
  * Improve the determination of the structure of the ambient solar wind. 

 SPACECRAFT:
  Launch (Delta II 7925-10L) = October 26, 2006 @ 1:53 UTC
  Mission end                = 2 year nominal mission after launch
  Dimensions                 = 1.14m x 1.22m (launch), 6.47m x 2.03m (deployed)
  Launch Mass                = 620 kg  (includes propellant)
  Power consumption          = 475 watts
  Data downlink              = 720 kilobits/sec
  Memory                     = 1 GB
  Attitude                   = control within 7", knowledge within 0.1"

 INSTRUMENTS (4 packages on each spacecraft):
  * Sun Earth Connection Coronal and Heliospheric Investigation (SECCHI)
  * STEREO/WAVES (SWAVES) radio burst tracker
  * In-situ Measurements of Particles and CME Transients (IMPACT)
  * PLAsma and SupraThermal Ion Composition (PLASTIC) 

 ORBIT:
  STEREO-A and STEREO-B will be launched together, then separate. The Moon's 
  gravity will be used to redirect the observatories to their appropriate 
  orbits, something the launch vehicle alone is not able to do.

  For the first three months after launch, the two observatories will fly in 
  highly elliptical orbits extending from very close to Earth to just beyond 
  the Moon's orbit. STEREO Mission Operations personnel at APL will 
  synchronize spacecraft orbits so that about two months after launch they 
  encounter the Moon, at which time one of them is close enough to use the 
  Moon's gravity to redirect it to a position "ahead"/leading the Earth. 
  Approximately one month later, the second observatory will encounter the 
  Moon again and be redirected to its orbit "behind"/trailing the Earth. 

 POST-LAUNCH SPACECRAFT TRAJECTORY: 
  Fit to tracking data until 2021-Nov-26, planning prediction thereafter.

  Trajectory name                    Start        Stop
  ---------------------------------  -----------  -----------
  ahead_2006_350_01.depm             2006-Oct-26  2006-Dec-15
  ahead_2008_037_01.depm             2006-Dec-15  2008-Jan-21
  ahead_2010_208_01.depm             2008-Jan-21  2010-Jul-16
  ahead_2012_138_01.depm             2010-Jul-16  2012-Apr-18
  ahead_2013_130_01.depm             2012-Apr-18  2013-Apr-25
  ahead_2015_219_01.depm             2013-Apr-25  2015-Jul-23
  ahead_2018_019_01.depm             2015-Jul-23  2017-Dec-21
  ahead_2020_224_01.depm             2017-Dec-21  2020-Aug-11
  ahead_2021_327_07.depm             2020-Aug-11  2021-Nov-23
  ahead_2021_327_07.epm              2021-Nov-23  2022-Mar-17
*******************************************************************************


*******************************************************************************
Ephemeris / WWW_USER Wed Feb  2 11:14:24 2022 Pasadena, USA      / Horizons    
*******************************************************************************
Target body name: STEREO-A (spacecraft) (-234)    {source: STEREO-A_merged}
Center body name: Sun (10)                        {source: DE441}
Center-site name: BODYCENTRIC
*******************************************************************************
Start time      : A.D. 2009-Jan-01 00:09:00.0000 UT      
Stop  time      : A.D. 2009-Dec-31 23:59:00.0000 UT      
Step-size       : 40 minutes
*******************************************************************************
Target pole/equ : No model available
Target radii    : (unavailable)                                                
Center geodetic : 0.00000000,0.00000000,0.0000000 {E-lon(deg),Lat(deg),Alt(km)}
Center cylindric: 0.00000000,0.00000000,0.0000000 {E-lon(deg),Dxy(km),Dz(km)}
Center pole/equ : IAU_SUN                         {East-longitude positive}
Center radii    : 696000.0 x 696000.0 x 696000.0 k{Equator, meridian, pole}    
Target primary  : Earth
Vis. interferer : None
Rel. light bend : Sun                             {source: DE441}
Rel. lght bnd GM: 1.3271E+11 km^3/s^2                                          
Atmos refraction: NO (AIRLESS)
RA format       : HMS
Time format     : CAL 
EOP file        : eop.220131.p220426                                           
EOP coverage    : DATA-BASED 1962-JAN-20 TO 2022-JAN-31. PREDICTS-> 2022-APR-25
Units conversion: 1 au= 149597870.700 km, c= 299792.458 km/s, 1 day= 86400.0 s 
Table cut-offs 1: Elevation (-90.0deg=NO ),Airmass     n.a.    , Daylight (NO )
Table cut-offs 2: Solar elongation (  0.0,180.0=NO ),Local Hour Angle( 0.0=NO )
Table cut-offs 3: RA/DEC angular rate (     0.0=NO )                           
*******************************************************************************
 Date__(UT)__HR:MN     R.A._____(ICRF)_____DEC             delta      deldot
****************************************************************************
$$SOE
 2009-Nov-25 21:29     08 37 31.80 +18 23 48.0  0.96721656370472   0.0011549
 2009-Nov-25 22:09     08 37 38.83 +18 23 21.9  0.96721658154453   0.0010691
 2009-Nov-25 22:49     08 37 45.85 +18 22 55.8  0.96721659800921   0.0009834
 2009-Nov-25 23:29     08 37 52.87 +18 22 29.7  0.96721661309884   0.0008977
 2009-Nov-26 00:09     08 37 59.90 +18 22 03.6  0.96721662681336   0.0008120
 2009-Nov-26 00:49     08 38 06.92 +18 21 37.4  0.96721663915278   0.0007263
 2009-Nov-26 01:29     08 38 13.94 +18 21 11.3  0.96721665011709   0.0006406
 2009-Nov-26 02:09     08 38 20.96 +18 20 45.1  0.96721665970631   0.0005549
 2009-Nov-26 02:49     08 38 27.98 +18 20 18.9  0.96721666792042   0.0004691
 2009-Nov-26 03:29     08 38 35.00 +18 19 52.7  0.96721667475939   0.0003834
 2009-Nov-26 04:09     08 38 42.02 +18 19 26.5  0.96721668022332   0.0002977
 2009-Nov-26 04:49     08 38 49.04 +18 19 00.3  0.96721668431212   0.0002120
 2009-Nov-26 05:29     08 38 56.05 +18 18 34.0  0.96721668702583   0.0001263
 2009-Nov-26 06:09     08 39 03.07 +18 18 07.7  0.96721668836443   0.0000406
 2009-Nov-26 06:49     08 39 10.09 +18 17 41.5  0.96721668832796  -0.0000451
 2009-Nov-26 07:29     08 39 17.10 +18 17 15.2  0.96721668691637  -0.0001308
 2009-Nov-26 08:09     08 39 24.12 +18 16 48.8  0.96721668412969  -0.0002166
 2009-Nov-26 08:49     08 39 31.13 +18 16 22.5  0.96721667996792  -0.0003023
 2009-Nov-26 09:29     08 39 38.14 +18 15 56.2  0.96721667443105  -0.0003880
 2009-Nov-26 10:09     08 39 45.16 +18 15 29.8  0.96721666751912  -0.0004737
 2009-Nov-26 10:49     08 39 52.17 +18 15 03.4  0.96721665923212  -0.0005594
 2009-Nov-26 11:29     08 39 59.18 +18 14 37.0  0.96721664957002  -0.0006451
 2009-Nov-26 12:09     08 40 06.19 +18 14 10.6  0.96721663853288  -0.0007308
 2009-Nov-26 12:49     08 40 13.21 +18 13 44.2  0.96721662612067  -0.0008165
 2009-Nov-26 13:29     08 40 20.22 +18 13 17.8  0.96721661233338  -0.0009022
 2009-Nov-26 14:09     08 40 27.23 +18 12 51.3  0.96721659717106  -0.0009880
 2009-Nov-26 14:49     08 40 34.23 +18 12 24.8  0.96721658063369  -0.0010737
 2009-Nov-26 15:29     08 40 41.24 +18 11 58.3  0.96721656272126  -0.0011594
 2009-Nov-26 16:09     08 40 48.25 +18 11 31.8  0.96721654343382  -0.0012451
 2009-Nov-26 16:49     08 40 55.26 +18 11 05.3  0.96721652277136  -0.0013308
 2009-Nov-26 17:29     08 41 02.27 +18 10 38.8  0.96721650073386  -0.0014165
 2009-Nov-26 18:09     08 41 09.27 +18 10 12.2  0.96721647732134  -0.0015022
 2009-Nov-26 18:49     08 41 16.28 +18 09 45.6  0.96721645253382  -0.0015879
 2009-Nov-26 19:29     08 41 23.28 +18 09 19.1  0.96721642637130  -0.0016736
 2009-Nov-26 20:09     08 41 30.29 +18 08 52.5  0.96721639883379  -0.0017593
 2009-Nov-26 20:49     08 41 37.29 +18 08 25.8  0.96721636992132  -0.0018450
 2009-Nov-26 21:29     08 41 44.29 +18 07 59.2  0.96721633963384  -0.0019307
 2009-Nov-26 22:09     08 41 51.30 +18 07 32.6  0.96721630797142  -0.0020164
 2009-Nov-26 22:49     08 41 58.30 +18 07 05.9  0.96721627493409  -0.0021022
 2009-Nov-26 23:29     08 42 05.30 +18 06 39.2  0.96721624052181  -0.0021879
 2009-Nov-27 00:09     08 42 12.30 +18 06 12.5  0.96721620473457  -0.0022736
 2009-Nov-27 00:49     08 42 19.30 +18 05 45.8  0.96721616757239  -0.0023593
 2009-Nov-27 01:29     08 42 26.30 +18 05 19.1  0.96721612903536  -0.0024450
 2009-Nov-27 02:09     08 42 33.30 +18 04 52.3  0.96721608912340  -0.0025307
 2009-Nov-27 02:49     08 42 40.30 +18 04 25.6  0.96721604783659  -0.0026164
 2009-Nov-27 03:29     08 42 47.30 +18 03 58.8  0.96721600517485  -0.0027021
 2009-Nov-27 04:09     08 42 54.29 +18 03 32.0  0.96721596113830  -0.0027878
 2009-Nov-27 04:49     08 43 01.29 +18 03 05.2  0.96721591572689  -0.0028735
 2009-Nov-27 05:29     08 43 08.29 +18 02 38.4  0.96721586894067  -0.0029591
 2009-Nov-27 06:09     08 43 15.28 +18 02 11.5  0.96721582077961  -0.0030448
 2009-Nov-27 06:49     08 43 22.28 +18 01 44.7  0.96721577124377  -0.0031305
 2009-Nov-27 07:29     08 43 29.27 +18 01 17.8  0.96721572033311  -0.0032162
 2009-Nov-27 08:09     08 43 36.26 +18 00 50.9  0.96721566804770  -0.0033019
 2009-Nov-27 08:49     08 43 43.26 +18 00 24.0  0.96721561438751  -0.0033876
 2009-Nov-27 09:29     08 43 50.25 +17 59 57.1  0.96721555935258  -0.0034733
 2009-Nov-27 10:09     08 43 57.24 +17 59 30.2  0.96721550294296  -0.0035590
 2009-Nov-27 10:49     08 44 04.23 +17 59 03.2  0.96721544515855  -0.0036447
 2009-Nov-27 11:29     08 44 11.22 +17 58 36.3  0.96721538599952  -0.0037304
 2009-Nov-27 12:09     08 44 18.21 +17 58 09.3  0.96721532546580  -0.0038161
 2009-Nov-27 12:49     08 44 25.20 +17 57 42.3  0.96721526355735  -0.0039017
 2009-Nov-27 13:29     08 44 32.19 +17 57 15.3  0.96721520027435  -0.0039874
 2009-Nov-27 14:09     08 44 39.18 +17 56 48.3  0.96721513561668  -0.0040731
 2009-Nov-27 14:49     08 44 46.17 +17 56 21.2  0.96721506958440  -0.0041588
 2009-Nov-27 15:29     08 44 53.16 +17 55 54.2  0.96721500217749  -0.0042445
